[{"OBJECT_NAME":"SAUDISAT 5B","OBJECT_ID":"2018-102C","EPOCH":"2026-03-09T22:59:17.457216","MEAN_MOTION":15.27248504,"ECCENTRICITY":0.00120577,"INCLINATION":97.3281,"RA_OF_ASC_NODE":135.3629,"ARG_OF_PERICENTER":124.0958,"MEAN_ANOMALY":236.1427,"EPHEMERIS_TYPE":0,"CLASSIFICATION_TYPE":"U","NORAD_CAT_ID":43833,"ELEMENT_SET_NO":999,"REV_AT_EPOCH":40064,"BSTAR":0.00024926623,"MEAN_MOTION_DOT":6.596e-5,"MEAN_MOTION_DDOT":0},{"OBJECT_NAME":"STARLINK-31543","OBJECT_ID":"2024-064E","EPOCH":"2026-03-09T00:53:36.177792","MEAN_MOTION":15.27577357,"ECCENTRICITY":0.00017019,"INCLINATION":43.0067,"RA_OF_ASC_NODE":60.0603,"ARG_OF_PERICENTER":288.2174,"MEAN_ANOMALY":71.8492,"EPHEMERIS_TYPE":0,"CLASSIFICATION_TYPE":"U","NORAD_CAT_ID":59402,"ELEMENT_SET_NO":999,"REV_AT_EPOCH":10912,"BSTAR":4.2599463e-5,"MEAN_MOTION_DOT":9.1e-6,"MEAN_MOTION_DDOT":0}]
